OBJECT_NAME,OBJECT_ID,EPOCH,MEAN_MOTION,ECCENTRICITY,INCLINATION,RA_OF_ASC_NODE,ARG_OF_PERICENTER,MEAN_ANOMALY,EPHEMERIS_TYPE,CLASSIFICATION_TYPE,NORAD_CAT_ID,ELEMENT_SET_NO,REV_AT_EPOCH,BSTAR,MEAN_MOTION_DOT,MEAN_MOTION_DDOT
BEIDOU-3S IGSO-1S (C31),2015-019A,2026-07-02T17:55:43.136256,1.00248556,.00393414,49.1658,295.2758,192.3032,152.1200,0,U,40549,999,4122,0,-.143E-5,0
GPS BIIF-10 (PRN 08),2015-033A,2026-07-03T16:11:40.176384,2.00555445,.01152077,53.9698,266.4064,30.2637,330.4699,0,U,40730,999,8032,0,-.7E-7,0
BEIDOU-3S M2S (C58),2015-037A,2026-07-02T08:35:27.801888,1.86232514,.00089408,54.8565,301.5241,257.9536,101.9638,0,U,40748,999,7440,0,-.61E-6,0
BEIDOU-3S M1S (C57),2015-037B,2026-07-01T11:45:13.356288,1.86255000,.00031011,54.8538,301.5415,62.8434,297.2018,0,U,40749,999,7439,0,-.65E-6,0
GSAT0206 (GALILEO 10),2015-045B,2026-07-01T12:50:49.477632,1.70473858,.00016203,54.9416,221.2080,340.3144,19.7690,0,U,40890,999,6728,0,.74E-6,0
BEIDOU-3S IGSO-2S (C56),2015-053A,2026-07-03T16:13:32.124864,1.00256009,.00657409,49.1955,258.5862,193.2527,167.4360,0,U,40938,999,3952,0,-.1E-5,0
GPS BIIF-11 (PRN 10),2015-062A,2026-07-03T17:31:23.813472,2.00567049,.01124213,56.9706,30.1743,230.9346,128.1135,0,U,41019,999,7816,0,-.57E-6,0
GSAT-15 (GAGAN/PRN 139),2015-065A,2026-07-02T16:59:36.074688,1.00270279,.00044396,0.0419,250.8690,191.0709,187.1953,0,U,41028,999,3895,0,-.247E-5,0
GSAT0209 (GALILEO 12),2015-079A,2026-06-28T04:24:50.829696,1.70473803,.00050857,55.8335,100.9603,347.1897,12.7761,0,U,41174,999,6496,0,-.33E-6,0
GSAT0208 (GALILEO 11),2015-079B,2026-07-01T22:10:17.474304,1.70473736,.0004614,55.8336,100.8547,354.4374,5.5610,0,U,41175,999,6544,0,-.13E-6,0
IRNSS-1E,2016-003A,2026-06-29T19:51:21.425184,1.00272765,.00192006,33.2608,59.5670,178.7998,89.1855,0,U,41241,999,3820,0,-.31E-5,0
GPS BIIF-12 (PRN 32),2016-007A,2026-06-29T20:00:04.300704,2.00551193,.00956433,55.5312,88.9584,247.1499,111.8568,0,U,41328,999,7609,0,-.37E-6,0
COSMOS 2514 (751),2016-008A,2026-07-03T17:01:22.096992,2.13102677,.00119211,65.0109,312.4399,199.8976,160.0650,0,U,41330,999,8097,0,-.44E-6,0
BEIDOU-2 IGSO-6 (C13),2016-021A,2026-06-26T02:38:38.671584,1.00258926,.0057558,60.2385,37.9495,231.0163,137.2672,0,U,41434,999,3757,0,-.145E-5,0
IRNSS-1G,2016-027A,2026-07-03T21:56:45.564864,1.00278983,.00058006,5.2359,97.0888,6.9123,276.6835,0,U,41469,999,3734,0,-.324E-5,0
GSAT0211 (GALILEO 14),2016-030A,2026-06-27T22:35:47.691744,1.70474008,.00031164,55.0927,221.3989,320.4926,39.5816,0,U,41549,999,6285,0,.69E-6,0
GSAT0210 (GALILEO 13),2016-030B,2026-07-03T11:28:19.668288,1.70473811,.000896,55.0896,221.2446,258.8551,101.1239,0,U,41550,999,6294,0,.74E-6,0
BEIDOU-2 G7 (C03),2016-037A,2026-07-04T01:31:38.642880,1.00268629,.00067105,1.7595,69.4459,4.4017,341.6680,0,U,41586,999,705,0,-.342E-5,0
EUTELSAT 117 WEST B (WAAS/PRN 131),2016-038B,2026-07-02T15:08:14.201088,1.00268475,.00003281,0.0082,201.6637,106.1903,82.8636,0,U,41589,999,3681,0,0,0
GSAT0207 (GALILEO 15),2016-069A,2026-06-26T17:13:02.065728,1.70473700,.00050068,55.5042,100.8225,333.0982,26.8500,0,U,41859,999,5956,0,-.38E-6,0
GSAT0212 (GALILEO 16),2016-069B,2026-06-28T07:56:01.576320,1.70473934,.00044344,55.5028,100.7730,6.1382,353.8467,0,U,41860,999,5984,0,-.33E-6,0
GSAT0213 (GALILEO 17),2016-069C,2026-06-28T02:40:06.685536,1.70474290,.00045371,55.5047,100.7870,315.9585,43.9839,0,U,41861,999,5970,0,-.34E-6,0
GSAT0214 (GALILEO 18),2016-069D,2026-07-01T04:34:09.619968,1.70473880,.00035565,55.5050,100.6945,328.0660,31.9108,0,U,41862,999,5988,0,-.17E-6,0
SES-15 (WAAS/PRN 133),2017-026A,2026-07-02T16:47:25.712160,1.00268893,.00006496,0.0224,333.2991,116.3241,313.8103,0,U,42709,999,758,0,.71E-6,0
QZS-2 (QZSS/PRN 194),2017-028A,2026-07-03T11:21:38.748096,1.00279734,.07585688,39.4029,242.9137,269.4566,81.7440,0,U,42738,999,778,0,-.107E-5,0
QZS-3 (QZSS/PRN 199),2017-048A,2026-07-04T00:48:14.897664,1.00268021,.00021736,0.0780,132.4069,329.6707,319.0396,0,U,42917,999,3242,0,-.336E-5,0
COSMOS 2522 (752),2017-055A,2026-07-03T13:07:38.677152,2.13102029,.00109198,64.0801,191.3275,240.7350,119.1829,0,U,42939,999,6832,0,.87E-6,0
QZS-4 (QZSS/PRN 195),2017-062A,2026-07-03T18:03:32.848992,1.00294465,.07469094,40.1000,343.2760,268.3365,79.4461,0,U,42965,999,3196,0,-.312E-5,0
BEIDOU-3 M1 (C19),2017-069A,2026-07-03T05:48:06.731712,1.86231596,.00096796,56.7055,62.5561,326.7179,33.2911,0,U,43001,999,5890,0,-.36E-6,0
BEIDOU-3 M2 (C20),2017-069B,2026-07-01T13:40:18.942816,1.86230997,.000873,56.7035,62.6467,353.7874,6.2692,0,U,43002,999,5886,0,-.4E-6,0
GSAT0215 (GALILEO 19),2017-079A,2026-07-02T06:24:01.464768,1.70474379,.0004952,55.0700,221.0915,269.1810,90.8482,0,U,43055,999,5324,0,.74E-6,0
